{"type": "FeatureCollection", "features": [ {"type": "Feature", "properties": {"norad_id": 31880, "name": "FENGYUN 1C DEB", "group": "fengyun-1c-debris", "lat": -70.35270156121436, "lon": -176.60788959160251, "alt_km": 1014.4835288675167, "timestamp": "2025-12-16T13:52:37.808151+00:00", "meta": {"OBJECT_NAME": "FENGYUN 1C DEB", "OBJECT_ID": "1999-025CKF", "EPOCH": "2025-12-11T16:42:46.632384", "MEAN_MOTION": 13.89397693, "ECCENTRICITY": 0.01281078, "INCLINATION": 100.0286, "RA_OF_ASC_NODE": 148.4273, "ARG_OF_PERICENTER": 154.5547, "MEAN_ANOMALY": 206.199, "EPHEMERIS_TYPE": 0, "CLASSIFICATION_TYPE": "U", "NORAD_CAT_ID": 31880, "ELEMENT_SET_NO": 999, "REV_AT_EPOCH": 62965, "BSTAR": 0.00070027147, "MEAN_MOTION_DOT": 8.62e-06, "MEAN_MOTION_DDOT": 0}, "tle": {"line1": "1 31880U 99025CKF 25345.69637306  .00000862  00000+0  70027-3 0  9998", "line2": "2 31880 100.0286 148.4273 0128107 154.5547 206.1990 13.89397693629651"}}, "geometry": {"type": "Point", "coordinates": [-176.60788959160251, -70.35270156121436]}}, {"type": "Feature", "properties": {"norad_id": 31882, "name": "FENGYUN 1C DEB", "group": "fengyun-1c-debris", "lat": -8.657787551577462, "lon": 91.72016777399328, "alt_km": 830.0976593685036, "timestamp": "2025-12-16T13:52:37.808161+00:00", "meta": {"OBJECT_NAME": "FENGYUN 1C DEB", "OBJECT_ID": "1999-025CKH", "EPOCH": "2025-12-04T12:04:11.131104", "MEAN_MOTION": 14.12940251, "ECCENTRICITY": 0.0035445, "INCLINATION": 98.9162, "RA_OF_ASC_NODE": 261.0675, "ARG_OF_PERICENTER": 248.9848, "MEAN_ANOMALY": 110.7531, "EPHEMERIS_TYPE": 0, "CLASSIFICATION_TYPE": "U", "NORAD_CAT_ID": 31882, "ELEMENT_SET_NO": 999, "REV_AT_EPOCH": 58520, "BSTAR": 0.0011941, "MEAN_MOTION_DOT": 2.193e-05, "MEAN_MOTION_DDOT": 0}, "tle": {"line1": "1 31882U 99025CKH 25338.50290661  .00002193  00000+0  11941-2 0  9999", "line2": "2 31882  98.9162 261.0675 0035445 248.9848 110.7531 14.12940251585207"}}, "geometry": {"type": "Point", "coordinates": [91.72016777399328, -8.657787551577462]}}, {"type": "Feature", "properties": {"norad_id": 31883, "name": "FENGYUN 1C DEB", "group": "fengyun-1c-debris", "lat": -72.90853481657632, "lon": -61.26709294857399, "alt_km": 734.8029864018208, "timestamp": "2025-12-16T13:52:37.808171+00:00", "meta": {"OBJECT_NAME": "FENGYUN 1C DEB", "OBJECT_ID": "1999-025CKJ", "EPOCH": "2025-12-15T05:29:56.732640", "MEAN_MOTION": 14.67747811, "ECCENTRICITY": 0.0125022, "INCLINATION": 99.0279, "RA_OF_ASC_NODE": 266.1101, "ARG_OF_PERICENTER": 61.5783, "MEAN_ANOMALY": 299.7952, "EPHEMERIS_TYPE": 0, "CLASSIFICATION_TYPE": "U", "NORAD_CAT_ID": 31883, "ELEMENT_SET_NO": 999, "REV_AT_EPOCH": 98015, "BSTAR": 0.00043698359, "MEAN_MOTION_DOT": 2.737e-05, "MEAN_MOTION_DDOT": 0}, "tle": {"line1": "1 31883U 99025CKJ 25349.22912885  .00002737  00000+0  43698-3 0  9999", "line2": "2 31883  99.0279 266.1101 0125022  61.5783 299.7952 14.67747811980152"}}, "geometry": {"type": "Point", "coordinates": [-61.26709294857399, -72.90853481657632]}}, {"type": "Feature", "properties": {"norad_id": 31887, "name": "FENGYUN 1C DEB", "group": "fengyun-1c-debris", "lat": -68.66359734393222, "lon": 68.2184091085358, "alt_km": 699.9551126786782, "timestamp": "2025-12-16T13:52:37.808181+00:00", "meta": {"OBJECT_NAME": "FENGYUN 1C DEB", "OBJECT_ID": "1999-025CKN", "EPOCH": "2025-12-14T09:29:19.919616", "MEAN_MOTION": 14.57804882, "ECCENTRICITY": 0.00239889, "INCLINATION": 99.5345, "RA_OF_ASC_NODE": 40.2352, "ARG_OF_PERICENTER": 359.7605, "MEAN_ANOMALY": 0.3574, "EPHEMERIS_TYPE": 0, "CLASSIFICATION_TYPE": "U", "NORAD_CAT_ID": 31887, "ELEMENT_SET_NO": 999, "REV_AT_EPOCH": 96632, "BSTAR": 0.00093128122, "MEAN_MOTION_DOT": 4.22e-05, "MEAN_MOTION_DDOT": 0}, "tle": {"line1": "1 31887U 99025CKN 25348.39536944  .00004220  00000+0  93128-3 0  9990", "line2": "2 31887  99.5345  40.2352 0023988 359.7605   0.3574 14.57804882966327"}}, "geometry": {"type": "Point", "coordinates": [68.2184091085358, -68.66359734393222]}}, {"type": "Feature", "properties": {"norad_id": 31888, "name": "FENGYUN 1C DEB", "group": "fengyun-1c-debris", "lat": -7.542160640913298, "lon": -81.57048296089019, "alt_km": 792.7982192994323, "timestamp": "2025-12-16T13:52:37.808191+00:00", "meta": {"OBJECT_NAME": "FENGYUN 1C DEB", "OBJECT_ID": "1999-025CKP", "EPOCH": "2025-12-14T01:37:35.065344", "MEAN_MOTION": 14.33953322, "ECCENTRICITY": 0.0017525, "INCLINATION": 99.155, "RA_OF_ASC_NODE": 274.5505, "ARG_OF_PERICENTER": 212.8144, "MEAN_ANOMALY": 147.1952, "EPHEMERIS_TYPE": 0, "CLASSIFICATION_TYPE": "U", "NORAD_CAT_ID": 31888, "ELEMENT_SET_NO": 999, "REV_AT_EPOCH": 95656, "BSTAR": 0.0022264011, "MEAN_MOTION_DOT": 6.177e-05, "MEAN_MOTION_DDOT": 0}, "tle": {"line1": "1 31888U 99025CKP 25348.06776696  .00006177  00000+0  22264-2 0  9990", "line2": "2 31888  99.1550 274.5505 0017525 212.8144 147.1952 14.33953322956564"}}, "geometry": {"type": "Point", "coordinates": [-81.57048296089019, -7.542160640913298]}}, {"type": "Feature", "properties": {"norad_id": 31890, "name": "FENGYUN 1C DEB", "group": "fengyun-1c-debris", "lat": 63.48978332506348, "lon": -15.936716682402547, "alt_km": 903.0863824859871, "timestamp": "2025-12-16T13:52:37.808201+00:00", "meta": {"OBJECT_NAME": "FENGYUN 1C DEB", "OBJECT_ID": "1999-025CKR", "EPOCH": "2025-12-15T06:54:50.639040", "MEAN_MOTION": 14.10134037, "ECCENTRICITY": 0.00716857, "INCLINATION": 98.7188, "RA_OF_ASC_NODE": 0.7301, "ARG_OF_PERICENTER": 234.9125, "MEAN_ANOMALY": 124.531, "EPHEMERIS_TYPE": 0, "CLASSIFICATION_TYPE": "U", "NORAD_CAT_ID": 31890, "ELEMENT_SET_NO": 999, "REV_AT_EPOCH": 64188, "BSTAR": 8.7675244e-05, "MEAN_MOTION_DOT": 1.16e-06, "MEAN_MOTION_DDOT": 0}, "tle": {"line1": "1 31890U 99025CKR 25349.28808610  .00000116  00000+0  87675-4 0  9996", "line2": "2 31890  98.7188   0.7301 0071685 234.9125 124.5310 14.10134037641885"}}, "geometry": {"type": "Point", "coordinates": [-15.936716682402547, 63.48978332506348]}}, {"type": "Feature", "properties": {"norad_id": 31891, "name": "FENGYUN 1C DEB", "group": "fengyun-1c-debris", "lat": 79.36095289073575, "lon": -56.34022015467888, "alt_km": 997.4509272711939, "timestamp": "2025-12-16T13:52:37.808210+00:00", "meta": {"OBJECT_NAME": "FENGYUN 1C DEB", "OBJECT_ID": "1999-025CKS", "EPOCH": "2025-12-15T19:52:30.075168", "MEAN_MOTION": 13.66206716, "ECCENTRICITY": 0.02249943, "INCLINATION": 99.4028, "RA_OF_ASC_NODE": 4.8258, "ARG_OF_PERICENTER": 175.3604, "MEAN_ANOMALY": 184.9698, "EPHEMERIS_TYPE": 0, "CLASSIFICATION_TYPE": "U", "NORAD_CAT_ID": 31891, "ELEMENT_SET_NO": 999, "REV_AT_EPOCH": 92452, "BSTAR": 0.00051292633, "MEAN_MOTION_DOT": 4.61e-06, "MEAN_MOTION_DDOT": 0}, "tle": {"line1": "1 31891U 99025CKS 25349.82812587  .00000461  00000+0  51293-3 0  9994", "line2": "2 31891  99.4028   4.8258 0224994 175.3604 184.9698 13.66206716924524"}}, "geometry": {"type": "Point", "coordinates": [-56.34022015467888, 79.36095289073575]}}, {"type": "Feature", "properties": {"norad_id": 31892, "name": "FENGYUN 1C DEB", "group": "fengyun-1c-debris", "lat": -12.133644015083505, "lon": 162.68981571335556, "alt_km": 713.1771747639923, "timestamp": "2025-12-16T13:52:37.808220+00:00", "meta": {"OBJECT_NAME": "FENGYUN 1C DEB", "OBJECT_ID": "1999-025CKT", "EPOCH": "2025-12-06T17:19:53.766912", "MEAN_MOTION": 14.41156255, "ECCENTRICITY": 0.01986119, "INCLINATION": 99.2881, "RA_OF_ASC_NODE": 149.9643, "ARG_OF_PERICENTER": 304.4066, "MEAN_ANOMALY": 53.8482, "EPHEMERIS_TYPE": 0, "CLASSIFICATION_TYPE": "U", "NORAD_CAT_ID": 31892, "ELEMENT_SET_NO": 999, "REV_AT_EPOCH": 64819, "BSTAR": 0.001005312, "MEAN_MOTION_DOT": 4.04e-05, "MEAN_MOTION_DDOT": 0}, "tle": {"line1": "1 31892U 99025CKT 25340.72215008  .00004040  00000+0  10053-2 0  9995", "line2": "2 31892  99.2881 149.9643 0198611 304.4066  53.8482 14.41156255648199"}}, "geometry": {"type": "Point", "coordinates": [162.68981571335556, -12.133644015083505]}}, {"type": "Feature", "properties": {"norad_id": 31893, "name": "FENGYUN 1C DEB", "group": "fengyun-1c-debris", "lat": -53.10693660629802, "lon": -38.47301935335586, "alt_km": 565.9073427038829, "timestamp": "2025-12-16T13:52:37.808230+00:00", "meta": {"OBJECT_NAME": "FENGYUN 1C DEB", "OBJECT_ID": "1999-025CKU", "EPOCH": "2025-12-12T15:47:49.240320", "MEAN_MOTION": 14.6375851, "ECCENTRICITY": 0.01749458, "INCLINATION": 99.0698, "RA_OF_ASC_NODE": 304.9273, "ARG_OF_PERICENTER": 327.0001, "MEAN_ANOMALY": 214.4613, "EPHEMERIS_TYPE": 0, "CLASSIFICATION_TYPE": "U", "NORAD_CAT_ID": 31893, "ELEMENT_SET_NO": 999, "REV_AT_EPOCH": 98403, "BSTAR": 0.0006699444, "MEAN_MOTION_DOT": 4.296e-05, "MEAN_MOTION_DDOT": 0}, "tle": {"line1": "1 31893U 99025CKU 25346.65820880  .00004296  00000+0  66994-3 0  9993", "line2": "2 31893  99.0698 304.9273 0174945 327.0001 214.4613 14.63758510984033"}}, "geometry": {"type": "Point", "coordinates": [-38.47301935335586, -53.10693660629802]}}, {"type": "Feature", "properties": {"norad_id": 31895, "name": "FENGYUN 1C DEB", "group": "fengyun-1c-debris", "lat": 40.04826376333457, "lon": 11.566143613535097, "alt_km": 1143.5651572918123, "timestamp": "2025-12-16T13:52:37.808270+00:00", "meta": {"OBJECT_NAME": "FENGYUN 1C DEB", "OBJECT_ID": "1999-025CKW", "EPOCH": "2025-12-15T20:12:52.058016", "MEAN_MOTION": 13.75543628, "ECCENTRICITY": 0.02270644, "INCLINATION": 99.0956, "RA_OF_ASC_NODE": 18.6017, "ARG_OF_PERICENTER": 221.3655, "MEAN_ANOMALY": 137.0107, "EPHEMERIS_TYPE": 0, "CLASSIFICATION_TYPE": "U", "NORAD_CAT_ID": 31895, "ELEMENT_SET_NO": 999, "REV_AT_EPOCH": 61939, "BSTAR": 0.0018280731, "MEAN_MOTION_DOT": 2.083e-05, "MEAN_MOTION_DDOT": 0}, "tle": {"line1": "1 31895U 99025CKW 25349.84226919  .00002083  00000+0  18281-2 0  9999", "line2": "2 31895  99.0956  18.6017 0227064 221.3655 137.0107 13.75543628619395"}}, "geometry": {"type": "Point", "coordinates": [11.566143613535097, 40.04826376333457]}}]}